        tleLine2: '2 23439  64.8206 339.2055 0145577  92.8301 268.9293 11.27580181243190',
        currentLonLat: [0, 0],
        currentAlt: 0,
        currentVel: [0, 0, 0]
    },
    24278: {
        noradid: 24278,
        name: "JAS-2 (FO-29)",
        tleLine1: '1 24278U 96046B   25066.33580121 -.00000028  00000+0  98700-5 0  9999',
        tleLine2: '2 24278  98.5853 332.5926 0349145 226.6170 130.5403 13.53239468410277',
        currentLonLat: [0, 0],
        currentAlt: 0,
        currentVel: [0, 0, 0]
    },
    25397: {
        noradid: 25397,
        name: "TECHSAT 1B (GO-32)",
        tleLine1: '1 25397U 98043D   25066.41699744  .00000211  00000+0  11165-3 0  9993',
        tleLine2: '2 25397  98.9610  43.6191 0002291 105.7368 254.4063 14.24266867385106',
        currentLonLat: [0, 0],
        currentAlt: 0,
        currentVel: [0, 0, 0]
    },
    25544: {
        noradid: 25544,
        name: "ISS (ZARYA)",
        tleLine1: '1 25544U 98067A   25066.26578413  .00009044  00000+0  16748-3 0  9990',
        tleLine2: '2 25544  51.6364  91.8418 0006216 352.6793 106.2280 15.49780711499350',
        currentLonLat: [0, 0],
        currentAlt: 0,
        currentVel: [0, 0, 0]
    },
    26931: {
        noradid: 26931,
        name: "PCSAT (NO-44)",
        tleLine1: '1 26931U 01043C   25065.56917339  .00000404  00000+0  18244-3 0  9999',
        tleLine2: '2 26931  67.0526  13.4765 0005792 266.0876  93.9564 14.31643873223501',
        currentLonLat: [0, 0],
        currentAlt: 0,
        currentVel: [0, 0, 0]
    },
    27607: {
        noradid: 27607,
        name: "SAUDISAT 1C (SO-50)",
        tleLine1: '1 27607U 02058C   25065.50363025  .00001991  00000+0  27002-3 0  9992',
        tleLine2: '2 27607  64.5536 133.9159 0045236 357.4545   2.6323 14.81079169195149',
        currentLonLat: [0, 0],
        currentAlt: 0,
        currentVel: [0, 0, 0]
    },
    27844: {
        noradid: 27844,
        name: "CUTE-1 (CO-55)",
        tleLine1: '1 27844U 03031E   25065.74857867  .00000622  00000+0  29070-3 0  9992',
        tleLine2: '2 27844  98.6795  75.2383 0010860 101.8870 258.3527 14.23855936125140',
        currentLonLat: [0, 0],
        currentAlt: 0,
        currentVel: [0, 0, 0]
    },
    27848: {
        noradid: 27848,
        name: "CUBESAT XI-IV (CO-57)",
        tleLine1: '1 27848U 03031J   25065.72350768  .00000532  00000+0  25446-3 0  9995',
        tleLine2: '2 27848  98.6824  75.2898 0010642 117.0640 243.1626 14.23211097124875',
        currentLonLat: [0, 0],
        currentAlt: 0,
        currentVel: [0, 0, 0]
    },
    27939: {
        noradid: 27939,
        name: "MOZHAYETS 4 (RS-22)",
        tleLine1: '1 27939U 03042A   25066.45857545  .00002270  00000+0  37075-3 0  9996',
        tleLine2: '2 27939  98.3175 233.7041 0010731 311.0684  63.3868 14.71885283146989',
        currentLonLat: [0, 0],
        currentAlt: 0,
        currentVel: [0, 0, 0]
    },
    28895: {
        noradid: 28895,
        name: "CUBESAT XI-V",
        tleLine1: '1 28895U 05043F   25065.61224373  .00003311  00000+0  55557-3 0  9997',
        tleLine2: '2 28895  98.2325 208.8962 0014084 245.7897 114.1837 14.70335335 33215',
        currentLonLat: [0, 0],
        currentAlt: 0,
        currentVel: [0, 0, 0]
    },
    32785: {
        noradid: 32785,
        name: "CUTE-1.7+APD II (CO-65)",
        tleLine1: '1 32785U 08021C   25066.18059931  .00007595  00000+0  57302-3 0  9996',
        tleLine2: '2 32785  97.7771  36.8056 0011041 158.4522 201.7169 15.02673040914960',
        currentLonLat: [0, 0],
        currentAlt: 0,
        currentVel: [0, 0, 0]
    },
    32791: {
        noradid: 32791,
        name: "SEEDS II (CO-66)",
        tleLine1: '1 32791U 08021J   25066.45319764  .00016470  00000+0  88713-3 0  9998',
        tleLine2: '2 32791  97.7213  44.6701 0006903 115.3091 244.8856 15.14874758916309',
        currentLonLat: [0, 0],
        currentAlt: 0,
        currentVel: [0, 0, 0]
    },
    32953: {
        noradid: 32953,
        name: "YUBILEINY (RS-30)",
        tleLine1: '1 32953U 08025A   25066.40218095  .00000025  00000+0  11264-3 0  9998',
        tleLine2: '2 32953  82.4993 285.7686 0018660 250.9206 108.9853 12.43159738761827',
        currentLonLat: [0, 0],
        currentAlt: 0,
        currentVel: [0, 0, 0]
    },
    33499: {
        noradid: 33499,
        name: "KKS-1 (KISEKI)",
        tleLine1: '1 33499U 09002H   25066.09606176  .00002531  00000+0  33317-3 0  9993',
        tleLine2: '2 33499  98.1243 336.8935 0008593  13.3640 346.7797 14.81049344867435',
        currentLonLat: [0, 0],
        currentAlt: 0,
        currentVel: [0, 0, 0]
    },
    35932: {
        noradid: 35932,
        name: "SWISSCUBE",
        tleLine1: '1 35932U 09051B   25065.65012430  .00001971  00000+0  41264-3 0  9993',
        tleLine2: '2 35932  98.4409 320.0794 0005924 219.0308 141.0465 14.60897089820852',
        currentLonLat: [0, 0],
        currentAlt: 0,
        currentVel: [0, 0, 0]
    },
    35933: {
        noradid: 35933,
        name: "BEESAT-1",
        tleLine1: '1 35933U 09051C   25065.65664008  .00001683  00000+0  35797-3 0  9992',
        tleLine2: '2 35933  98.4344 320.6054 0004204 233.2542 126.8272 14.60376476820910',
        currentLonLat: [0, 0],
        currentAlt: 0,
        currentVel: [0, 0, 0]
    },
    35935: {
        noradid: 35935,
        name: "ITUPSAT1",
        tleLine1: '1 35935U 09051E   25065.66471387  .00001535  00000+0  33575-3 0  9999',
        tleLine2: '2 35935  98.4440 320.2300 0006378 245.0648 114.9889 14.59204403820528',
        currentLonLat: [0, 0],
        currentAlt: 0,
        currentVel: [0, 0, 0]
    },
    36122: {
        noradid: 36122,
        name: "XIWANG-1 (HOPE-1)",
        tleLine1: '1 36122U 09072B   25066.37806380  .00000011  00000+0  14391-3 0  9998',
        tleLine2: '2 36122 100.3371  24.1925 0007039 217.3976 142.6648 13.16420197731688',
        currentLonLat: [0, 0],
        currentAlt: 0,
        currentVel: [0, 0, 0]
    },
    37224: {
        noradid: 37224,
        name: "O/OREOS (USA 219)",
        tleLine1: '1 37224U 10062C   25066.37386758  .00004383  00000+0  45261-3 0  9991',
        tleLine2: '2 37224  71.9712  55.3783 0017051 240.7796 119.1668 14.90575902 47002',
        currentLonLat: [0, 0],
        currentAlt: 0,
        currentVel: [0, 0, 0]
    },
    37839: {
        noradid: 37839,
        name: "JUGNU",
        tleLine1: '1 37839U 11058B   25065.26676933  .00000594  00000+0  17120-3 0  9996',
        tleLine2: '2 37839  19.9606 270.7198 0018648 309.5150 206.6197 14.13531455692849',
        currentLonLat: [0, 0],
        currentAlt: 0,
        currentVel: [0, 0, 0]
    },
    37841: {
        noradid: 37841,
        name: "SRMSAT",
        tleLine1: '1 37841U 11058D   25066.23222699  .00000579  00000+0  17135-3 0  9992',
        tleLine2: '2 37841  19.9733   5.4678 0011892 107.4559  42.7766 14.11377604691988',
        currentLonLat: [0, 0],
        currentAlt: 0,
        currentVel: [0, 0, 0]
    },
    39090: {
        noradid: 39090,
        name: "STRAND-1",
        tleLine1: '1 39090U 13009E   25065.75452573  .00000664  00000+0  24000-3 0  9994',
        tleLine2: '2 39090  98.3814 252.9408 0008724 181.2646 178.8520 14.36676391629931',
        currentLonLat: [0, 0],
        currentAlt: 0,
        currentVel: [0, 0, 0]
    },
    39417: {
        noradid: 39417,
        name: "ZACUBE-1 (TSHEPISOSAT)",
        tleLine1: '1 39417U 13066B   25066.41132379  .00008745  00000+0  78791-3 0  9997',
        tleLine2: '2 39417  97.7688  24.0786 0045866   9.3794 350.8272 14.95009685610831',
        currentLonLat: [0, 0],
        currentAlt: 0,
        currentVel: [0, 0, 0]
    },
    39430: {
        noradid: 39430,
        name: "GOMX-1",
        tleLine1: '1 39430U 13066Q   25066.52078415  .00003187  00000+0  50404-3 0  9990',
        tleLine2: '2 39430  97.6973 290.9193 0134854 132.9496 228.3115 14.66989020601615',
        currentLonLat: [0, 0],
        currentAlt: 0,
        currentVel: [0, 0, 0]
    },
    39440: {
        noradid: 39440,
        name: "CUBEBUG-2 (LO-74)",
        tleLine1: '1 39440U 13066AA  25066.41879432  .00005272  00000+0  55171-3 0  9990',
        tleLine2: '2 39440  97.8405  11.7679 0065273 129.2962 231.4069 14.88466554608628',
        currentLonLat: [0, 0],
        currentAlt: 0,
        currentVel: [0, 0, 0]
    },
    39444: {
        noradid: 39444,
        name: "FUNCUBE-1 (AO-73)",
        tleLine1: '1 39444U 13066AE  25066.44079280  .00012890  00000+0  10243-2 0  9994',
        tleLine2: '2 39444  97.7560  28.2628 0041222 347.4125  12.6065 14.99910329610054',
        currentLonLat: [0, 0],
        currentAlt: 0,
        currentVel: [0, 0, 0]
    },
    39446: {
        noradid: 39446,
        name: "UWE-3",
        tleLine1: '1 39446U 13066AG  25066.33040667  .00007396  00000+0  72403-3 0  9993',
        tleLine2: '2 39446  97.8133  17.9220 0056912  72.2480 288.4938 14.91362604608446',
        currentLonLat: [0, 0],
        currentAlt: 0,
        currentVel: [0, 0, 0]
    },
    40012: {
        noradid: 40012,
        name: "UNISAT-6",
        tleLine1: '1 40012U 14033C   25065.52618031  .00006998  00000+0  82692-3 0  9993',
        tleLine2: '2 40012  97.7285 224.4947 0049218 166.2756 193.9810 14.84085955576699',
        currentLonLat: [0, 0],
        currentAlt: 0,
        currentVel: [0, 0, 0]
    },
    40021: {
        noradid: 40021,
        name: "DUCHIFAT-1",
        tleLine1: '1 40021U 14033M   25066.42786745  .00024862  00000+0  10711-2 0  9993',
        tleLine2: '2 40021  98.1024  72.9529 0006877 285.6514  74.3961 15.22559732583968',
        currentLonLat: [0, 0],
        currentAlt: 0,
        currentVel: [0, 0, 0]
    },
    40025: {
        noradid: 40025,
        name: "QB50P1",
        tleLine1: '1 40025U 14033R   25065.48189662  .00013371  00000+0  87309-3 0  9998',
        tleLine2: '2 40025  98.0765  42.9903 0012044  28.5430 331.6454 15.07919294582297',
